{
  "type": "FeatureCollection",
  "metadata": {
    "title": "Озёра Брестской области",
    "source": "brest_waterbodies.geojson",
    "total_features": 23
  },
  "features": [
    {
      "type": "Feature",
      "geometry": {
        "coordinates": [
          [
            [
              26.06087403788274,
              53.18540470851184
            ],
            [
              26.066319816677208,
              53.188496110626716
            ],
            [
              26.071478983499162,
              53.1918277019702
            ],
            [
              26.070619288145764,
              53.195536794893314
            ],
            [
              26.058810502954145,
              53.197872020069724
            ],
            [
              26.061848724797358,
              53.199829394796836
            ],
            [
              26.073371048212692,
              53.19893656989515
            ],
            [
              26.07778461943991,
              53.203194385149686
            ],
            [
              26.08545418888741,
              53.20584659805016
            ],
            [
              26.086041273559232,
              53.20813212950435
            ],
            [
              26.08262638020176,
              53.21009232785687
            ],
            [
              26.07849997907033,
              53.2098864751259
            ],
            [
              26.073775929798757,
              53.205665832225236
            ],
            [
              26.058386181610217,
              53.20520276389908
            ],
            [
              26.049704278180116,
              53.20165049161727
            ],
            [
              26.04807032341236,
              53.19871427935027
            ],
            [
              26.049359504959284,
              53.19258366655188
            ],
            [
              26.04884312764571,
              53.188719613886576
            ],
            [
              26.04772498786363,
              53.18593739014244
            ],
            [
              26.053743771060084,
              53.18403100050557
            ],
            [
              26.057699096561635,
              53.18397947588423
            ],
            [
              26.06087403788274,
              53.18540470851184
            ]
          ]
        ],
        "type": "Polygon"
      },
      "properties": {
        "id": 5,
        "name": "Озеро Домашевичское",
        "type": "lake",
        "type_ru": "Озеро",
        "district": "Барановичский",
        "region": "Брестская область",
        "location_description": "2,9 км на северо-запад от г. Барановичи",
        "activities": "подводная охота, лов рыбы на дорожку с судов с двигателями",
        "coordinate_source": "uploaded_geometry",
        "match_distance_km": 7.1
      }
    },
    {
      "type": "Feature",
      "geometry": {
        "coordinates": [
          [
            [
              23.742986917629082,
              51.88030938418703
            ],
            [
              23.74298691716021,
              51.87994387278954
            ],
            [
              23.742631654261515,
              51.879395599942
            ],
            [
              23.742829022769655,
              51.878055349148696
            ],
            [
              23.74470402140102,
              51.87770200368192
            ],
            [
              23.74569086278649,
              51.878347770883124
            ],
            [
              23.74653954637631,
              51.878615822469015
            ],
            [
              23.746480335892898,
              51.879212840712256
            ],
            [
              23.747052703896344,
              51.879444335448824
            ],
            [
              23.74801980869259,
              51.879943872669884
            ],
            [
              23.748355334764028,
              51.88121096655789
            ],
            [
              23.74788165089859,
              51.88236837687987
            ],
            [
              23.747092177790563,
              51.88329428368226
            ],
            [
              23.745414547436553,
              51.88320900359028
            ],
            [
              23.743677706599215,
              51.88220999617468
            ],
            [
              23.742986917629082,
              51.88030938418703
            ]
          ]
        ],
        "type": "Polygon"
      },
      "properties": {
        "id": 8,
        "name": "Озеро Белое (Берестье)",
        "type": "lake",
        "type_ru": "Озеро",
        "district": "Брестский",
        "region": "Брестская область",
        "location_description": "1,4 км юго-западнее пос. Берестье",
        "activities": "подводная охота",
        "coordinate_source": "uploaded_geometry",
        "match_distance_km": 23.4
      }
    },
    {
      "type": "Feature",
      "geometry": {
        "coordinates": [
          [
            [
              23.979926235959738,
              52.198144977686155
            ],
            [
              23.980739340380268,
              52.197881682743684
            ],
            [
              23.98213542532983,
              52.19758077232865
            ],
            [
              23.98508101115783,
              52.19724224567628
            ],
            [
              23.98758169079187,
              52.19702596340957
            ],
            [
              23.988762993441355,
              52.19842707767893
            ],
            [
              23.98977553856946,
              52.19969650548998
            ],
            [
              23.989560756269384,
              52.20028889272689
            ],
            [
              23.98773510672072,
              52.2014924488266
            ],
            [
              23.986477096106256,
              52.20216003229669
            ],
            [
              23.985909457170862,
              52.20223525234093
            ],
            [
              23.98492759522904,
              52.20160528054001
            ],
            [
              23.98340877753685,
              52.201276187242314
            ],
            [
              23.981736543915844,
              52.20027948981675
            ],
            [
              23.980371142151313,
              52.198991272293455
            ],
            [
              23.979926235959738,
              52.198144977686155
            ]
          ]
        ],
        "type": "Polygon"
      },
      "properties": {
        "id": 9,
        "name": "Озеро Меднянское",
        "type": "lake",
        "type_ru": "Озеро",
        "district": "Брестский",
        "region": "Брестская область",
        "location_description": "0,5 км севернее аг. Медно",
        "activities": "подводная охота",
        "coordinate_source": "uploaded_geometry",
        "match_distance_km": 13
      }
    },
    {
      "type": "Feature",
      "geometry": {
        "coordinates": [
          [
            [
              23.73730840495932,
              51.872653209168476
            ],
            [
              23.739032118699015,
              51.87168105588029
            ],
            [
              23.740606664904078,
              51.87100565280301
            ],
            [
              23.742910474614604,
              51.871281955288026
            ],
            [
              23.74382205373047,
              51.87263274304004
            ],
            [
              23.74428374278503,
              51.87593172124318
            ],
            [
              23.74194678473276,
              51.87744608144601
            ],
            [
              23.74017334848105,
              51.87723120911667
            ],
            [
              23.738764543982114,
              51.875696376902766
            ],
            [
              23.737869538770497,
              51.873793112195614
            ],
            [
              23.737355739495797,
              51.87325076932652
            ],
            [
              23.73730840495932,
              51.872653209168476
            ]
          ]
        ],
        "type": "Polygon"
      },
      "properties": {
        "id": 10,
        "name": "Озеро Рогознянское",
        "type": "lake",
        "type_ru": "Озеро",
        "district": "Брестский",
        "region": "Брестская область",
        "location_description": "0,2 км южнее пос. Берестье",
        "activities": "подводная охота",
        "coordinate_source": "uploaded_geometry",
        "match_distance_km": 24.3
      }
    },
    {
      "type": "Feature",
      "geometry": {
        "coordinates": [
          [
            [
              24.16615692837857,
              52.099561718485035
            ],
            [
              24.16926281186528,
              52.09788395739258
            ],
            [
              24.176714949680274,
              52.09475495054335
            ],
            [
              24.197708763536497,
              52.087196012349125
            ],
            [
              24.209389470084147,
              52.08467371305616
            ],
            [
              24.215854337540065,
              52.08856421695063
            ],
            [
              24.212502004423783,
              52.09398310291763
            ],
            [
              24.216977762586538,
              52.09734119587063
            ],
            [
              24.22269377367232,
              52.10650150034388
            ],
            [
              24.222068603714746,
              52.11069947160374
            ],
            [
              24.227896892194764,
              52.116040297254074
            ],
            [
              24.227645636003786,
              52.1186335776564
            ],
            [
              24.240055711605777,
              52.11954758474474
            ],
            [
              24.24527711584807,
              52.12915643604654
            ],
            [
              24.24689417110025,
              52.136705226684
            ],
            [
              24.235715168645356,
              52.13449426231813
            ],
            [
              24.22540474035091,
              52.131062885361104
            ],
            [
              24.223169843668302,
              52.13380807865059
            ],
            [
              24.217580342441494,
              52.13601907707269
            ],
            [
              24.208884831562898,
              52.13487493157575
            ],
            [
              24.192240380822824,
              52.13190066082751
            ],
            [
              24.178950681666464,
              52.124200300895524
            ],
            [
              24.177335924794647,
              52.11992966105976
            ],
            [
              24.183174239517598,
              52.11665042695387
            ],
            [
              24.18193205264305,
              52.11039482020732
            ],
            [
              24.1783294650333,
              52.105130553506626
            ],
            [
              24.170007633895267,
              52.10436862059035
            ],
            [
              24.16615692837857,
              52.099561718485035
            ]
          ]
        ],
        "type": "Polygon"
      },
      "properties": {
        "id": 11,
        "name": "Озеро Страдечское",
        "type": "lake",
        "type_ru": "Озеро",
        "district": "Брестский",
        "region": "Брестская область",
        "location_description": "1,2 км севернее аг. Медно",
        "activities": "подводная охота",
        "coordinate_source": "uploaded_geometry",
        "match_distance_km": 27.6
      }
    },
    {
      "type": "Feature",
      "geometry": {
        "type": "Point",
        "coordinates": [
          23.7,
          52.11
        ]
      },
      "properties": {
        "id": 12,
        "name": "Озеро Тайное",
        "type": "lake",
        "type_ru": "Озеро",
        "district": "Брестский",
        "region": "Брестская область",
        "location_description": "1,7 км севернее дер. Дубица",
        "activities": "подводная охота, лов рыбы на дорожку с судов с двигателями",
        "coordinate_source": "approximate_point",
        "match_distance_km": null
      }
    },
    {
      "type": "Feature",
      "geometry": {
        "coordinates": [
          [
            [
              26.403741490404315,
              52.569235065829844
            ],
            [
              26.403270550066424,
              52.56893860338059
            ],
            [
              26.402900525488008,
              52.56880570576598
            ],
            [
              26.40184090961492,
              52.56789585742419
            ],
            [
              26.401891367512263,
              52.5668428633189
            ],
            [
              26.403270550031294,
              52.566740629535246
            ],
            [
              26.40636530105178,
              52.56695532020589
            ],
            [
              26.4093086783804,
              52.5678856343022
            ],
            [
              26.409897353845338,
              52.56881592866466
            ],
            [
              26.409174123988493,
              52.56973598060233
            ],
            [
              26.406197108061235,
              52.56987909805798
            ],
            [
              26.403741490404315,
              52.569235065829844
            ]
          ]
        ],
        "type": "Polygon"
      },
      "properties": {
        "id": 15,
        "name": "Озеро Покамерское Большое",
        "type": "lake",
        "type_ru": "Озеро",
        "district": "Ганцевичский",
        "region": "Брестская область",
        "location_description": "22 км на юг от г. Ганцевичи",
        "activities": "подводная охота, лов рыбы на дорожку с судов с двигателями",
        "coordinate_source": "uploaded_geometry",
        "match_distance_km": 2.1
      }
    },
    {
      "type": "Feature",
      "geometry": {
        "coordinates": [
          [
            [
              25.669508913462238,
              51.935884364030784
            ],
            [
              25.669188265617436,
              51.93521220228283
            ],
            [
              25.668803488203395,
              51.93443459083426
            ],
            [
              25.670086079584166,
              51.93266844019553
            ],
            [
              25.672886404096914,
              51.932787064431125
            ],
            [
              25.67557984599364,
              51.933788767692704
            ],
            [
              25.676285271252482,
              51.93537035889392
            ],
            [
              25.675472963379264,
              51.93751859765001
            ],
            [
              25.672822274527675,
              51.937966683566714
            ],
            [
              25.670492233520775,
              51.93716276152867
            ],
            [
              25.669508913462238,
              51.935884364030784
            ]
          ]
        ],
        "type": "Polygon"
      },
      "properties": {
        "id": 24,
        "name": "Озеро Белое (Мохро)",
        "type": "lake",
        "type_ru": "Озеро",
        "district": "Ивановский",
        "region": "Брестская область",
        "location_description": "9 км юго-восточнее дер. Мохро",
        "activities": "подводная охота, лов рыбы на дорожку с судов с двигателями",
        "coordinate_source": "uploaded_geometry",
        "match_distance_km": 0
      }
    },
    {
      "type": "Feature",
      "geometry": {
        "coordinates": [
          [
            [
              25.618306661691804,
              51.935341603548835
            ],
            [
              25.617995793410074,
              51.93417790233531
            ],
            [
              25.617396261722604,
              51.93234330030427
            ],
            [
              25.618195637305945,
              51.931576578724986
            ],
            [
              25.619838798226255,
              51.9312342880757
            ],
            [
              25.621881646938164,
              51.931809334874856
            ],
            [
              25.62296968592642,
              51.93376717705371
            ],
            [
              25.6238134712643,
              51.93666955512009
            ],
            [
              25.623391578595772,
              51.939380097157596
            ],
            [
              25.622081490834034,
              51.93955805630981
            ],
            [
              25.620971246968992,
              51.93859980638743
            ],
            [
              25.619816593348503,
              51.93738143050183
            ],
            [
              25.618306661691804,
              51.935341603548835
            ]
          ]
        ],
        "type": "Polygon"
      },
      "properties": {
        "id": 25,
        "name": "Озеро Безуменник",
        "type": "lake",
        "type_ru": "Озеро",
        "district": "Ивановский",
        "region": "Брестская область",
        "location_description": "7,5 км юго-восточнее дер. Мохро",
        "activities": "подводная охота, лов рыбы на дорожку с судов с двигателями",
        "coordinate_source": "uploaded_geometry",
        "match_distance_km": 0
      }
    },
    {
      "type": "Feature",
      "geometry": {
        "coordinates": [
          [
            [
              25.534914470117855,
              52.15962721632357
            ],
            [
              25.536919774403856,
              52.160438059584806
            ],
            [
              25.53737541383049,
              52.16449193090273
            ],
            [
              25.53482317044211,
              52.165889711902395
            ],
            [
              25.5337748544421,
              52.16980325506461
            ],
            [
              25.531359295120495,
              52.173269208465086
            ],
            [
              25.530402191109488,
              52.17407974189513
            ],
            [
              25.529718558729286,
              52.17393999017321
            ],
            [
              25.528943816404137,
              52.170697717702325
            ],
            [
              25.528943867780157,
              52.16675631675159
            ],
            [
              25.530584643666145,
              52.164715568658124
            ],
            [
              25.531177172781867,
              52.162674710250656
            ],
            [
              25.53122278755623,
              52.16024231717759
            ],
            [
              25.534914470117855,
              52.15962721632357
            ]
          ]
        ],
        "type": "Polygon"
      },
      "properties": {
        "id": 26,
        "name": "Озеро Завищанское",
        "type": "lake",
        "type_ru": "Озеро",
        "district": "Ивановский",
        "region": "Брестская область",
        "location_description": "возле дер. Завышье",
        "activities": "подводная охота",
        "coordinate_source": "uploaded_geometry",
        "match_distance_km": 2.2
      }
    },
    {
      "type": "Feature",
      "geometry": {
        "coordinates": [
          [
            [
              25.688173324215455,
              51.99693828313127
            ],
            [
              25.690340399661807,
              51.99529606702083
            ],
            [
              25.690965517578917,
              51.995065125549104
            ],
            [
              25.6914656119136,
              51.99296093727085
            ],
            [
              25.693257616609372,
              51.99013809037274
            ],
            [
              25.696883300531198,
              51.99026640545625
            ],
            [
              25.703217828760984,
              51.990856650103325
            ],
            [
              25.70550992779144,
              51.9923450585795
            ],
            [
              25.706593465514658,
              51.99588624536949
            ],
            [
              25.703009456121436,
              51.99893965257266
            ],
            [
              25.699883866534265,
              52.00304474578303
            ],
            [
              25.694591201500742,
              52.00368613259005
            ],
            [
              25.69371603641548,
              52.002582941590646
            ],
            [
              25.692924220387397,
              52.00083830497641
            ],
            [
              25.690298725133232,
              51.998400831140174
            ],
            [
              25.688173324215455,
              51.99693828313127
            ]
          ]
        ],
        "type": "Polygon"
      },
      "properties": {
        "id": 27,
        "name": "Озеро Мотольское",
        "type": "lake",
        "type_ru": "Озеро",
        "district": "Ивановский",
        "region": "Брестская область",
        "location_description": "возле аг. Мотоль",
        "activities": "подводная охота, лов рыбы на дорожку с судов с двигателями",
        "coordinate_source": "uploaded_geometry",
        "match_distance_km": 9.5
      }
    },
    {
      "type": "Feature",
      "geometry": {
        "coordinates": [
          [
            [
              25.580132093573525,
              52.41017954843937
            ],
            [
              25.580290210594683,
              52.409190906441125
            ],
            [
              25.581080811127634,
              52.4078405540447
            ],
            [
              25.58305725762662,
              52.404946861065696
            ],
            [
              25.585863791188217,
              52.40412687104097
            ],
            [
              25.594243935306963,
              52.403379221164755
            ],
            [
              25.5995804262335,
              52.40494673302035
            ],
            [
              25.602149803909725,
              52.40663481018797
            ],
            [
              25.604403150215717,
              52.41005897595974
            ],
            [
              25.604324076164573,
              52.41172275486247
            ],
            [
              25.60159655154621,
              52.4140374727869
            ],
            [
              25.597287844894026,
              52.41647261774898
            ],
            [
              25.5955090065182,
              52.41734055056634
            ],
            [
              25.58732641365674,
              52.41726820510081
            ],
            [
              25.583096783391767,
              52.415339422195245
            ],
            [
              25.581792318292827,
              52.412831898550934
            ],
            [
              25.580132093573525,
              52.41017954843937
            ]
          ]
        ],
        "type": "Polygon"
      },
      "properties": {
        "id": 28,
        "name": "Озеро Мульное",
        "type": "lake",
        "type_ru": "Озеро",
        "district": "Ивановский",
        "region": "Брестская область",
        "location_description": "25 км на север от г. Иваново",
        "activities": "подводная охота, лов рыбы на дорожку с судов с двигателями",
        "coordinate_source": "uploaded_geometry",
        "match_distance_km": 5.7
      }
    },
    {
      "type": "Feature",
      "geometry": {
        "coordinates": [
          [
            [
              25.684089968559306,
              51.938490860474246
            ],
            [
              25.68335897615728,
              51.93745227308182
            ],
            [
              25.68350485188921,
              51.93526674988948
            ],
            [
              25.68452880127964,
              51.934793259046785
            ],
            [
              25.68679611920578,
              51.934432499319655
            ],
            [
              25.688368616827574,
              51.93508636897673
            ],
            [
              25.690233681965424,
              51.93853595023353
            ],
            [
              25.68979485280269,
              51.94151185407563
            ],
            [
              25.686905840595784,
              51.94160202865643
            ],
            [
              25.685479619373183,
              51.94072280611195
            ],
            [
              25.684089968559306,
              51.938490860474246
            ]
          ]
        ],
        "type": "Polygon"
      },
      "properties": {
        "id": 29,
        "name": "Озеро Окунино",
        "type": "lake",
        "type_ru": "Озеро",
        "district": "Ивановский",
        "region": "Брестская область",
        "location_description": "21 км на юго-восток от г. Иваново",
        "activities": "подводная охота, лов рыбы на дорожку с судов с двигателями",
        "coordinate_source": "uploaded_geometry",
        "match_distance_km": 7.8
      }
    },
    {
      "type": "Feature",
      "geometry": {
        "coordinates": [
          [
            [
              25.668436509492494,
              52.42707651389617
            ],
            [
              25.665819698223572,
              52.425927627445816
            ],
            [
              25.665453344503362,
              52.42305528023829
            ],
            [
              25.666081379237653,
              52.42066151462194
            ],
            [
              25.66895987177125,
              52.41954437952279
            ],
            [
              25.67429816701309,
              52.42047000775804
            ],
            [
              25.67785703050862,
              52.42219353958862
            ],
            [
              25.67848506524294,
              52.42551274439356
            ],
            [
              25.679165436204926,
              52.42717225308377
            ],
            [
              25.67722899577433,
              52.430299618877456
            ],
            [
              25.67398414964643,
              52.430810188140526
            ],
            [
              25.671733691848175,
              52.42921463955523
            ],
            [
              25.668436509492494,
              52.42707651389617
            ]
          ]
        ],
        "type": "Polygon"
      },
      "properties": {
        "id": 34,
        "name": "Озеро Вульковское",
        "type": "lake",
        "type_ru": "Озеро",
        "district": "Ивацевичский",
        "region": "Брестская область",
        "location_description": "39 км на юго-восток от г. Ивацевичи",
        "activities": "подводная охота",
        "coordinate_source": "uploaded_geometry",
        "match_distance_km": 0
      }
    },
    {
      "type": "Feature",
      "geometry": {
        "coordinates": [
          [
            [
              25.621314609800066,
              52.366538627839674
            ],
            [
              25.620973775902797,
              52.36538243729615
            ],
            [
              25.62154180297634,
              52.36424934983907
            ],
            [
              25.624344109544012,
              52.36316249190966
            ],
            [
              25.628661322375137,
              52.36293121855573
            ],
            [
              25.630440673722717,
              52.364179993151936
            ],
            [
              25.6316527518359,
              52.36616862147707
            ],
            [
              25.631842137532942,
              52.36776410318072
            ],
            [
              25.630781423066935,
              52.36938249330555
            ],
            [
              25.627790252947534,
              52.37046940566643
            ],
            [
              25.623170242665168,
              52.36991455188229
            ],
            [
              25.620822304980294,
              52.36857344468413
            ],
            [
              25.621314609800066,
              52.366538627839674
            ]
          ]
        ],
        "type": "Polygon"
      },
      "properties": {
        "id": 35,
        "name": "Озеро Соминское",
        "type": "lake",
        "type_ru": "Озеро",
        "district": "Ивацевичский",
        "region": "Брестская область",
        "location_description": "45 км на юго-восток от г. Ивацевичи",
        "activities": "подводная охота, лов рыбы на дорожку с судов с двигателями",
        "coordinate_source": "uploaded_geometry",
        "match_distance_km": 0.1
      }
    },
    {
      "type": "Feature",
      "geometry": {
        "coordinates": [
          [
            [
              24.608547235557808,
              51.99616724038373
            ],
            [
              24.604942385236853,
              51.99268410699855
            ],
            [
              24.603500445108864,
              51.98991789627709
            ],
            [
              24.603389526637642,
              51.986229349490884
            ],
            [
              24.601781208801782,
              51.983565210092706
            ],
            [
              24.603777741286933,
              51.98172071306203
            ],
            [
              24.609878257215655,
              51.97786068646468
            ],
            [
              24.617087957857677,
              51.976972491682716
            ],
            [
              24.620249133266327,
              51.97902214575285
            ],
            [
              24.621741249338015,
              51.98354627680584
            ],
            [
              24.61980010633303,
              51.98457100181548
            ],
            [
              24.621131175822114,
              51.98979673469762
            ],
            [
              24.619411877731665,
              51.991094534610795
            ],
            [
              24.618469036844004,
              51.992426448043034
            ],
            [
              24.614753134518764,
              51.995943875088585
            ],
            [
              24.61103723219469,
              51.997002464081476
            ],
            [
              24.608547235557808,
              51.99616724038373
            ]
          ]
        ],
        "type": "Polygon"
      },
      "properties": {
        "id": 39,
        "name": "Озеро Любань",
        "type": "lake",
        "type_ru": "Озеро",
        "district": "Кобринский",
        "region": "Брестская область",
        "location_description": "30 км на юго-восток от г. Кобрин",
        "activities": "подводная охота",
        "coordinate_source": "uploaded_geometry",
        "match_distance_km": 6.3
      }
    },
    {
      "type": "Feature",
      "geometry": {
        "coordinates": [
          [
            [
              26.639685689046132,
              52.383889207915246
            ],
            [
              26.639655762789175,
              52.38258370813111
            ],
            [
              26.64118930619648,
              52.38145591857102
            ],
            [
              26.641293138176167,
              52.38048329641313
            ],
            [
              26.644027649298295,
              52.38044946140806
            ],
            [
              26.645764433399762,
              52.38154344263714
            ],
            [
              26.646411108330113,
              52.38265995223074
            ],
            [
              26.647907698886456,
              52.384058368862895
            ],
            [
              26.64739035894101,
              52.38541163310768
            ],
            [
              26.6460046269448,
              52.38541163310768
            ],
            [
              26.64415698428462,
              52.385434187160286
            ],
            [
              26.644415654257386,
              52.38589654270049
            ],
            [
              26.64240172375699,
              52.385422910135645
            ],
            [
              26.639685689046132,
              52.383889207915246
            ]
          ]
        ],
        "type": "Polygon"
      },
      "properties": {
        "id": 43,
        "name": "Озеро Белое (Бостынь)",
        "type": "lake",
        "type_ru": "Озеро",
        "district": "Лунинецкий",
        "region": "Брестская область",
        "location_description": "17 км на северо-запад от г. Лунинец",
        "activities": "подводная охота",
        "coordinate_source": "uploaded_geometry",
        "match_distance_km": 4.5
      }
    },
    {
      "type": "Feature",
      "geometry": {
        "coordinates": [
          [
            [
              26.999617189834424,
              52.44442451794197
            ],
            [
              26.999617189834424,
              52.432308000978
            ],
            [
              27.03038110588207,
              52.432308000978
            ],
            [
              27.03038110588207,
              52.44442451794197
            ],
            [
              26.999617189834424,
              52.44442451794197
            ]
          ]
        ],
        "type": "Polygon"
      },
      "properties": {
        "id": 44,
        "name": "Озеро Вульковское (Вулька-2)",
        "type": "lake",
        "type_ru": "Озеро",
        "district": "Лунинецкий",
        "region": "Брестская область",
        "location_description": "в пределах аг. Вулька-2",
        "activities": "подводная охота",
        "coordinate_source": "uploaded_geometry",
        "match_distance_km": 10.3
      }
    },
    {
      "type": "Feature",
      "geometry": {
        "coordinates": [
          [
            [
              23.910889716949953,
              51.65371565998066
            ],
            [
              23.909620175915848,
              51.65259863021774
            ],
            [
              23.908235222060227,
              51.6511521789821
            ],
            [
              23.90865070821698,
              51.650894390747396
            ],
            [
              23.91245933131924,
              51.650794139371214
            ],
            [
              23.914329019024734,
              51.651696393774245
            ],
            [
              23.917999146741806,
              51.6518682497198
            ],
            [
              23.920422815988445,
              51.65415960006234
            ],
            [
              23.9115129461851,
              51.65424552344669
            ],
            [
              23.910889716949953,
              51.65371565998066
            ]
          ]
        ],
        "type": "Polygon"
      },
      "properties": {
        "id": 49,
        "name": "Озеро Дворищанское",
        "type": "lake",
        "type_ru": "Озеро",
        "district": "Малоритский",
        "region": "Брестская область",
        "location_description": "11 км на юго-запад от г. Малорита",
        "activities": "подводная охота, лов рыбы на дорожку с судов с двигателями",
        "coordinate_source": "uploaded_geometry",
        "match_distance_km": 9.2
      }
    },
    {
      "type": "Feature",
      "geometry": {
        "coordinates": [
          [
            [
              23.718420587012645,
              51.82453677195693
            ],
            [
              23.71861441581217,
              51.8239750049315
            ],
            [
              23.719434704434804,
              51.82330575518657
            ],
            [
              23.72274867026826,
              51.822210597926585
            ],
            [
              23.72504547827279,
              51.82269733777346
            ],
            [
              23.72824921025105,
              51.82556457307339
            ],
            [
              23.730546020045125,
              51.824996745245556
            ],
            [
              23.73290845113536,
              51.825118423174786
            ],
            [
              23.732777205046744,
              51.82792085922705
            ],
            [
              23.731727235771302,
              51.83039475191737
            ],
            [
              23.72949605085381,
              51.83240215512822
            ],
            [
              23.727757039079677,
              51.83189524356982
            ],
            [
              23.727719721629512,
              51.829702608504846
            ],
            [
              23.727331845236364,
              51.82817444429281
            ],
            [
              23.726483365627132,
              51.828339248809925
            ],
            [
              23.723671261779174,
              51.828024621481575
            ],
            [
              23.720107647418928,
              51.82649640033736
            ],
            [
              23.718420587012645,
              51.82453677195693
            ]
          ]
        ],
        "type": "Polygon"
      },
      "properties": {
        "id": 50,
        "name": "Озеро Ореховское",
        "type": "lake",
        "type_ru": "Озеро",
        "district": "Малоритский",
        "region": "Брестская область",
        "location_description": "17 км на юго-запад от г. Малорита",
        "activities": "подводная охота, лов рыбы на дорожку с судов с двигателями",
        "coordinate_source": "uploaded_geometry",
        "match_distance_km": 24.6
      }
    },
    {
      "type": "Feature",
      "geometry": {
        "coordinates": [
          [
            [
              26.239432017973115,
              52.14531564088145
            ],
            [
              26.248028013655926,
              52.145141738566934
            ],
            [
              26.249067090057054,
              52.14740241568819
            ],
            [
              26.248122475146715,
              52.154415580962166
            ],
            [
              26.244627399978953,
              52.15360419686664
            ],
            [
              26.238959710518003,
              52.148909470008164
            ],
            [
              26.237542788152524,
              52.14751834475487
            ],
            [
              26.239432017973115,
              52.14531564088145
            ]
          ]
        ],
        "type": "Polygon"
      },
      "properties": {
        "id": 53,
        "name": "Озеро Кончицкое",
        "type": "lake",
        "type_ru": "Озеро",
        "district": "Пинский",
        "region": "Брестская область",
        "location_description": "18 км на юго-запад от г. Пинск",
        "activities": "подводная охота, лов рыбы на дорожку с судов с двигателями",
        "coordinate_source": "uploaded_geometry",
        "match_distance_km": 29.4
      }
    },
    {
      "type": "Feature",
      "geometry": {
        "type": "Point",
        "coordinates": [
          27.05,
          51.783
        ]
      },
      "properties": {
        "id": 60,
        "name": "Озеро Лишня",
        "type": "lake",
        "type_ru": "Озеро",
        "district": "Столинский",
        "region": "Брестская область",
        "location_description": "вблизи аг. Струга",
        "activities": "подводная охота, лов рыбы на дорожку с судов с двигателями",
        "coordinate_source": "approximate_point",
        "match_distance_km": null
      }
    },
    {
      "type": "Feature",
      "geometry": {
        "coordinates": [
          [
            [
              26.5960879464819,
              51.99050084687579
            ],
            [
              26.596055450810837,
              51.98944027392332
            ],
            [
              26.596185433481708,
              51.988950000552904
            ],
            [
              26.59714405558404,
              51.98699885952732
            ],
            [
              26.599646221749794,
              51.98655859031044
            ],
            [
              26.601498474625572,
              51.98700886559533
            ],
            [
              26.603253240508707,
              51.98868985332774
            ],
            [
              26.60265207071575,
              51.990650925935455
            ],
            [
              26.601465978961755,
              51.99193158005866
            ],
            [
              26.59953248692392,
              51.99223172807041
            ],
            [
              26.597534003558508,
              51.992081654316024
            ],
            [
              26.5960879464819,
              51.99050084687579
            ]
          ]
        ],
        "type": "Polygon"
      },
      "properties": {
        "id": 61,
        "name": "Озеро Рухчанское",
        "type": "lake",
        "type_ru": "Озеро",
        "district": "Столинский",
        "region": "Брестская область",
        "location_description": "вблизи дер. Рухча-2",
        "activities": "подводная охота, лов рыбы на дорожку с судов с двигателями",
        "coordinate_source": "uploaded_geometry",
        "match_distance_km": 11.3
      }
    }
  ]
}